OPTICUBE 04             
1 41851U 16067D   24242.71359075  .00007543  00000+0  55519-3 0  9996
2 41851  98.0827  50.7974 0018156 165.9304 194.2429 15.03550773426285
AEROCUBE 8D             
1 41852U 16067E   24242.71805091  .00015391  00000+0  96530-3 0  9999
2 41852  98.1121  56.0437 0004535 214.1730 145.9206 15.09415841426483
AEROCUBE 8C             
1 41853U 16067F   24242.99877333  .00015045  00000+0  94349-3 0  9990
2 41853  98.0945  54.7374 0008070 145.9801 214.1946 15.09408047426514
PROMETHEUS 2-1          
1 41854U 16067G   24242.76443503  .00036854  00000+0  16720-2 0  9991
2 41854  98.1023  63.1473 0011817 164.7331 195.4261 15.20658512426908
PROMETHEUS 2-3          
1 41855U 16067H   24242.76260232  .00036782  00000+0  16721-2 0  9999
2 41855  98.0956  62.5625 0010069 174.6013 185.5331 15.20606671426907
AALTO-1                 
1 42775U 17036L   24243.02438359  .02320059  22475-5  12597-2 0  9993
2 42775  97.0754 275.0879 0007905 226.1316 133.9322 16.19686929400788
CORVUS BC2              
1 42846U 17042X   24242.26093556  .00009815  00000+0  82153-3 0  9992
2 42846  97.3773  63.3383 0008684 158.3124 201.8468 14.98611206388385
CORVUS BC1              
1 42847U 17042Y   24242.01406261  .00008678  00000+0  72426-3 0  9995
2 42847  97.3763  63.5195 0007719 162.1553 197.9943 14.98766619388365
MIRATA                  
1 43015U 17073C   24243.17756268  .00044342  00000+0  18773-2 0  9992
2 43015  97.5833 127.2241 0157619   8.3165 352.0621 15.12392723367494
MAKERSAT 0              
1 43016U 17073D   24242.90124636  .00028599  00000+0  15370-2 0  9997
2 43016  97.5672 119.9113 0187455  33.5843 327.7099 15.00944269366959
GOMX-4B                 
1 43196U 18015E   24243.01866895  .00206578  00000+0  10530-2 0  9994
2 43196  97.6024  63.0769 0003916   4.9337 355.1968 15.80825657367111
SIRION PATHFINDER-2     
1 43759U 18099B   24242.11277264  .00012494  00000+0  90716-3 0  9994
2 43759  97.5220 296.2335 0011363  44.4205 315.7931 15.03965247313466
CORVUS BC4              
1 43767U 18099K   24243.11349584  .00008931  00000+0  66380-3 0  9990
2 43767  97.5044 294.1895 0011585  93.5249 266.7301 15.03171097313497
MOVE-II                 
1 43780U 18099Y   24242.14190604  .00052659  00000+0  24053-2 0  9990
2 43780  97.5145 304.6301 0006531  93.7131 266.4851 15.20371345313999
SPACEBEE-7              
1 43816U 18099BL  24242.41926270  .00030080  00000+0  16212-2 0  9998
2 43816  97.5421 305.3429 0009231  43.5129 316.6830 15.14701798313486
SPACEBEE-6              
1 43818U 18099BN  24243.15154427  .00070743  00000+0  23301-2 0  9996
2 43818  97.5341 312.8861 0005611  30.6144 329.5423 15.31195784314195
SHIELDS 1               
1 43850U 18104B   24242.20552383  .00027993  00000+0  68509-3 0  9996
2 43850  85.0190 233.4436 0012560 144.0560 216.1539 15.40554492317393
SONATE                  
1 44400U 19038Q   24242.74796226  .00041506  00000+0  10830-2 0  9999
2 44400  97.7150 240.3573 0014571 191.0265 169.0662 15.38596811285371
LUCKY-7                 
1 44406U 19038W   24242.99027016  .00094240  00000+0  14803-2 0  9993
2 44406  97.7033 245.9982 0013233 166.2690 193.8925 15.53223016285785
DUCHIFAT-3              
1 44854U 19089C   24242.53637991  .00032432  00000+0  14767-2 0  9999
2 44854  36.9560 322.6716 0005273   1.8458 358.2308 15.19836357259425
M2 PATHFINDER           
1 45727U 20037E   24242.75339141  .00008252  00000+0  70316-3 0  9990
2 45727  97.7797  58.8550 0010722 235.6995 124.3212 14.97976642226959
NETSAT-4                
1 46504U 20068U   24242.65933640  .00019044  00000+0  95616-3 0  9992
2 46504  97.8103 201.9095 0012278 107.6674 252.5900 15.17279979215307
NETSAT-3                
1 46505U 20068V   24242.40914394  .00020346  00000+0  10389-2 0  9991
2 46505  97.8080 201.0640 0011615 114.7422 245.5021 15.16680298215252
NETSAT-1                
1 46506U 20068W   24242.67886727  .00015827  00000+0  85716-3 0  9994
2 46506  97.8105 200.6271 0010154 121.9296 238.2924 15.14668320215242
NETSAT-2                
1 46507U 20068X   24242.67912552  .00019422  00000+0  97653-3 0  9999
2 46507  97.8090 201.5391 0009485 123.7628 236.4509 15.17253000215251
WILDTRACKCUBE-SIMBA     
1 47941U 21022K   24243.16509391  .00023825  00000+0  96856-3 0  9997
2 47941  97.4496 139.3720 0012219 237.9479 122.0572 15.24476650189723
GRBALPHA                
1 47959U 21022AD  24242.90591063  .00038972  00000+0  13221-2 0  9997
2 47959  97.4494 141.5168 0010591 224.3325 135.7069 15.30365861188664
BCCSAT-1                
1 48041U 21022AK  24242.32570584  .00484033  00000+0  31072-2 0  9998
2 48041  97.4446 152.9292 0011238 141.3264 218.8807 15.74821369189322
BEESAT-8                
1 48085U 21022AP  24242.54502109  .00058681  00000+0  15239-2 0  9991
2 48085  97.4693 145.6439 0009162 201.9483 158.1370 15.38721554189130
LEDSAT                  
1 49069U 21073D   24243.19854616  .00030867  00000+0  11060-2 0  9999
2 49069  97.4319 313.9806 0017463  26.0312 334.1802 15.28540100167740
ROBUSTA-1F (MTCUBE 2)   
1 53109U 22080E   24238.19698299 -.00000003  00000+0  00000+0 0  9994
2 53109  70.1277 168.1299 0007799  72.9225 287.2288  6.42584220 49596
SITRO-AIS 5 (KATYS)     
1 57176U 23091L   24243.21418734  .00014403  00000+0  88037-3 0  9996
2 57176  97.6071 294.8171 0016328 224.0993 135.8935 15.10257696 64667
SITRO-AIS 6 (CHIRKIN)   
1 57192U 23091AC  24243.19658047  .00013451  00000+0  82157-3 0  9993
2 57192  97.6066 294.8288 0016117 223.5105 136.4854 15.10303715 64664
SITRO-AIS 8 (ANOKHIN)   
1 57193U 23091AD  24243.14622177  .00015163  00000+0  91410-3 0  9998
2 57193  97.6066 294.8858 0015853 224.6877 135.3076 15.10754115 64660
SITRO-AIS 7 (FARTUSHNIY)
1 57194U 23091AE  24243.13782756  .00013426  00000+0  82144-3 0  9992
2 57194  97.6067 294.7451 0015970 224.3007 135.6945 15.10244266 64650
SITRO-AIS 10 (BURDAEV)  
1 57199U 23091AK  24243.15727308  .00017027  00000+0  97257-3 0  9993
2 57199  97.6080 296.0252 0011576 210.0432 150.0136 15.12728300 64736
SITRO-AIS 9 (SHCHUKIN)  
1 57201U 23091AM  24243.15661152  .00017113  00000+0  97814-3 0  9996
2 57201  97.6076 295.9983 0011543 209.9101 150.1471 15.12703534 64733
SITRO-AIS 12 (SMIRENNIY)
1 57204U 23091AQ  24243.17581163  .00017543  00000+0  99714-3 0  9992
2 57204  97.6079 296.1787 0011631 204.3527 155.7155 15.12897349 64742
SITRO-AIS 11 (SHEFFER)  
1 57208U 23091AU  24243.15695154  .00016757  00000+0  94976-3 0  9991
2 57208  97.6082 296.1907 0011461 204.1939 155.8754 15.13011218 64740
ROBUSTA-1E (ENSO)       
1 58470U 23185J   24243.16089279  .00029257  00000+0  11078-2 0  9993
2 58470  97.4202 309.2395 0011286  24.2236 335.9532 15.26816028 41417
SITRO-AIS 29            
1 59052U 24039B   24243.19860596  .00043922  00000+0  13784-2 0  9992
2 59052  97.3957 204.8405 0012429 323.8610  36.1791 15.32824065 27919
SITRO-AIS 30            
1 59053U 24039C   24243.20246267  .00040979  00000+0  12935-2 0  9994
2 59053  97.3956 204.8301 0012748 324.7188  35.3209 15.32651533 27900
SITRO-AIS 31            
1 59054U 24039D   24243.18818366  .00042947  00000+0  13462-2 0  9990
2 59054  97.3956 204.8502 0012622 324.2287  35.8109 15.32865024 27928
SITRO-AIS 33            
1 59055U 24039E   24243.17362935  .00040527  00000+0  12668-2 0  9995
2 59055  97.3962 204.8775 0012417 325.8348  34.2094 15.32970738 27919
SITRO-AIS 35            
1 59056U 24039F   24243.16908062  .00043421  00000+0  13562-2 0  9992
2 59056  97.3961 204.8797 0012268 326.4013  33.6450 15.32981307 27916
SITRO-AIS 32            
1 59057U 24039G   24243.18196428  .00043900  00000+0  13769-2 0  9991
2 59057  97.3961 204.8653 0012341 326.3181  33.7276 15.32844267 27915
SITRO-AIS 34            
1 59058U 24039H   24243.17475638  .00045172  00000+0  14102-2 0  9999
2 59058  97.3962 204.8775 0012340 326.2002  33.8452 15.32986256 27914
SITRO-AIS 36            
1 59059U 24039J   24243.16128660  .00044012  00000+0  13686-2 0  9997
2 59059  97.3961 204.8906 0011933 326.5712  33.4776 15.33122782 27910
SITRO-AIS 49            
1 59060U 24039K   24243.16437667  .00043156  00000+0  13470-2 0  9998
2 59060  97.3962 204.8867 0012015 325.7829  34.2638 15.33007168 27917
SITRO-AIS 50            
1 59061U 24039L   24243.21219270  .00042669  00000+0  13223-2 0  9997
2 59061  97.3959 204.9737 0011866 325.7663  34.2813 15.33240301 27924
SITRO-AIS 51            
1 59062U 24039M   24243.21197053  .00044071  00000+0  13645-2 0  9999
2 59062  97.3959 204.9733 0011848 326.0665  33.9818 15.33261903 27929
SITRO-AIS 52            
1 59063U 24039N   24243.13570840  .00047805  00000+0  14738-2 0  9992
2 59063  97.3958 204.9253 0011696 326.6217  33.4287 15.33379707 27912
SITRO-AIS 25            
1 59066U 24039R   24243.21336788  .00009978  00000+0  92664-3 0  9999
2 59066  95.3975 147.5228 0171543  88.3111 273.7749 14.83893893 27080
SITRO-AIS 26            
1 59067U 24039S   24243.21476888  .00009501  00000+0  88401-3 0  9992
2 59067  95.3975 147.5205 0171527  88.3465 273.7394 14.83834437 27085
SITRO-AIS 27            
1 59068U 24039T   24243.19672744  .00008879  00000+0  82316-3 0  9995
2 59068  95.3977 147.5418 0171051  88.1783 273.9019 14.84034156 27084
SITRO-AIS 28            
1 59071U 24039U   24243.19208917  .00009602  00000+0  88929-3 0  9997
2 59071  95.3977 147.5479 0170872  88.1459 273.9322 14.84077574 27083
GRBBETA                 
1 60237U 24128C   24242.68971175  .00010078  00000+0  87264-3 0  9998
2 60237  61.9963 345.8332 0014684 324.9470  35.0651 14.97551078  7604
OOV-CUBE (TUBSAT-30)    
1 60240U 24128F   24242.57693267  .00007152  00000+0  63653-3 0  9998
2 60240  61.9999 346.4157 0013027 313.6372  46.3635 14.96814392  7590
ROBUSTA-3A (MEDITERRAN*)
1 60243U 24128J   24243.19273119  .00011853  00000+0  10445-2 0  9993
2 60243  61.9938 344.3627 0014912 302.4432  57.5213 14.96739534  7682
